{
  "type": "FeatureCollection",
  "features": [
    {
      "type": "Feature",
      "properties": {
        "precinct_key": "Восточно-Казахстанская область|Усть-Каменогорск|2",
        "precinct_id": 2,
        "level": "precinct",
        "center_name": "",
        "center_address": "Улица Жастар, 31/3",
        "center_phone": "60-84-86",
        "region": "Восточно-Казахстанская область",
        "city": "Усть-Каменогорск",
        "center_lat": 49.90637419070024,
        "center_lon": 82.61323228129423,
        "points_count": 11,
        "polygon_source": "convex_hull"
      },
      "geometry": {
        "type": "Polygon",
        "coordinates": [
          [
            [
              82.6144541,
              49.9051542
            ],
            [
              82.6096659,
              49.9066674
            ],
            [
              82.6146164,
              49.9075005
            ],
            [
              82.6154499,
              49.9054658
            ],
            [
              82.6144541,
              49.9051542
            ]
          ]
        ]
      }
    },
    {
      "type": "Feature",
      "properties": {
        "precinct_key": "Восточно-Казахстанская область|Усть-Каменогорск|3",
        "precinct_id": 3,
        "level": "precinct",
        "center_name": "Лицей № 44 имени Оралхана Бокея",
        "center_address": "Проспект имени Каныша Сатпаева, 8/3",
        "center_phone": "61-15-25",
        "region": "Восточно-Казахстанская область",
        "city": "Усть-Каменогорск",
        "center_lat": 49.917851063933874,
        "center_lon": 82.58756059232661,
        "points_count": 13,
        "polygon_source": "convex_hull"
      },
      "geometry": {
        "type": "Polygon",
        "coordinates": [
          [
            [
              82.6007576,
              49.9003421
            ],
            [
              82.6003567,
              49.9005571
            ],
            [
              82.5430566,
              49.9513433
            ],
            [
              82.6155138,
              49.9043663
            ],
            [
              82.6143644,
              49.9006107
            ],
            [
              82.6007576,
              49.9003421
            ]
          ]
        ]
      }
    },
    {
      "type": "Feature",
      "properties": {
        "precinct_key": "Восточно-Казахстанская область|Усть-Каменогорск|5",
        "precinct_id": 5,
        "level": "precinct",
        "center_name": "Средняя школа № 26",
        "center_address": "Улица Утепова, 1",
        "center_phone": "61-74-99",
        "region": "Восточно-Казахстанская область",
        "city": "Усть-Каменогорск",
        "center_lat": 49.91519067526032,
        "center_lon": 82.59273295080561,
        "points_count": 11,
        "polygon_source": "convex_hull"
      },
      "geometry": {
        "type": "Polygon",
        "coordinates": [
          [
            [
              82.6157931,
              49.8974767
            ],
            [
              82.5429493,
              49.9494613
            ],
            [
              82.6177456,
              49.8997782
            ],
            [
              82.6192731,
              49.8984179
            ],
            [
              82.6157931,
              49.8974767
            ]
          ]
        ]
      }
    }
  ]
}